     3.00           N                   E                   RINEX VERSION / TYPE
BRD_USR             ESA                 20190115 021834  UTCPGM / RUN BY / DATE
 GAL   3.6500E+01  1.4844E-01  3.9673E-04  0.0000E+00       IONOSPHERIC CORR
GAUT  2.7939677238E-09-1.776356839E-15  86400 2036 GSTB   0 TIME SYSTEM CORR
GPGA -1.4551915228E-09-1.110223025E-14 172800 2036 GSTB   0 TIME SYSTEM CORR
                                                            END OF HEADER
E04 2019 01 15 00 10 00-2.001838292927E-04-7.872813512222E-12 0.000000000000E+00
     3.300000000000E+01-5.037500000000E+01 3.274422107110E-09-1.507603181175E+00
    -2.298504114151E-06 7.291580550373E-05 8.894130587578E-06 5.440616529465E+03
     1.734000000000E+05-4.284083843231E-08 1.119880367467E+00 2.793967723846E-08
     9.524751362640E-01 1.455000000000E+02 2.136210962104E+00-5.628448733196E-09
    -1.271481533738E-10 5.210000000000E+02 2.036000000000E+03 0.000000000000E+00
     3.120000000000E+00 0.000000000000E+00-7.916241884232E-09-8.847564458847E-09
     1.740850000000E+05 0.000000000000E+00 0.000000000000E+00 0.000000000000E+00
E05 2019 01 15 00 10 00 1.249487395398E-04-6.508571459563E-12 0.000000000000E+00
     3.300000000000E+01-3.018750000000E+01 3.350496704493E-09-2.580594184677E+00
    -1.406297087669E-06 1.335167326033E-04 9.095296263695E-06 5.440615942001E+03
     1.734000000000E+05 0.000000000000E+00 1.119813158084E+00 2.980232238770E-08
     9.524441253266E-01 1.386562500000E+02 1.635974415255E+00-5.651306828185E-09
    -1.528635102359E-10 5.210000000000E+02 2.036000000000E+03 0.000000000000E+00
     3.120000000000E+00 0.000000000000E+00-1.396983861923E-09-1.396983861923E-09
     1.740850000000E+05 0.000000000000E+00 0.000000000000E+00 0.000000000000E+00
E07 2019 01 15 00 10 00-1.127034192905E-04-7.133849067031E-12 0.000000000000E+00
     3.300000000000E+01-5.190625000000E+01 3.367640275735E-09 3.001937227238E+00
    -2.346932888031E-06 1.334504922852E-04 9.657815098763E-06 5.440612714767E+03
     1.734000000000E+05 5.587935447693E-08 1.119831751773E+00-2.607703208923E-08
     9.524753235175E-01 1.279062500000E+02-2.128950741058E-02-5.699880280035E-09
    -2.275094766829E-10 5.210000000000E+02 2.036000000000E+03 0.000000000000E+00
     3.120000000000E+00 0.000000000000E+00 2.328306436539E-10 2.328306436539E-10
     1.740850000000E+05 0.000000000000E+00 0.000000000000E+00 0.000000000000E+00
E11 2019 01 15 00 10 00 5.719799723011E-03 7.247535904753E-13 0.000000000000E+00
     3.300000000000E+01-1.878125000000E+01 2.707612782941E-09 2.285914903565E+00
    -9.257346391678E-07 2.827197313309E-04 8.556991815567E-06 5.440605955124E+03
     1.734000000000E+05-4.470348358154E-08-9.854929061924E-01-1.303851604462E-08
     9.819862110959E-01 1.676875000000E+02-3.509721581420E-01-5.449155550630E-09
     1.332198348551E-10 5.210000000000E+02 2.036000000000E+03 0.000000000000E+00
     3.120000000000E+00 0.000000000000E+00-1.862645149231E-08-2.025626599789E-08
     1.740850000000E+05 0.000000000000E+00 0.000000000000E+00 0.000000000000E+00
E14 2019 01 15 00 10 00 6.459823867772E-03-5.613287612505E-12 0.000000000000E+00
     3.300000000000E+01 9.281250000000E+00 2.000083311498E-09-1.806846636495E+00
     7.692724466324E-07 1.662692811806E-01 7.824972271919E-06 5.289356580734E+03
     1.734000000000E+05 4.554167389870E-06-1.587842953381E+00-2.393499016762E-06
     8.826680121971E-01 1.626250000000E+02 1.458202487187E+00-2.036156242652E-09
     8.375348866898E-10 5.210000000000E+02 2.036000000000E+03 0.000000000000E+00
     3.120000000000E+00 4.550000000000E+02 3.306195139885E-08 3.702007234097E-08
     1.740850000000E+05 0.000000000000E+00 0.000000000000E+00 0.000000000000E+00
E15 2019 01 15 00 10 00 9.229460847564E-04-1.008970684779E-12 0.000000000000E+00
     3.300000000000E+01-2.796875000000E+01 2.691540684902E-09 1.159519072018E+00
    -1.426786184311E-06 3.918340662494E-04 1.012347638607E-05 5.440599283218E+03
     1.734000000000E+05 1.862645149231E-08-9.907863816354E-01 4.097819328308E-08
     9.851854973647E-01 1.331250000000E+02-1.577306088421E+00-5.437726503135E-09
     1.775073938955E-10 5.210000000000E+02 2.036000000000E+03 0.000000000000E+00
     3.120000000000E+00 4.550000000000E+02 1.629814505577E-09 1.396983861923E-09
     1.740850000000E+05 0.000000000000E+00 0.000000000000E+00 0.000000000000E+00
E18 2019 01 15 00 10 00 5.605806945823E-03-2.846434199455E-11 0.000000000000E+00
     3.300000000000E+01-8.281250000000E+01 2.641181444380E-09 1.304164223743E+00
    -5.658715963364E-06 1.663058978738E-01 3.917142748833E-06 5.289391496658E+03
     1.734000000000E+05 2.726912498474E-06-1.570719296843E+00 5.625188350677E-07
     8.818621330518E-01 2.490625000000E+02 1.442914197431E+00-3.784086193808E-09
    -7.900329080417E-10 5.210000000000E+02 2.036000000000E+03 0.000000000000E+00
     3.120000000000E+00 4.550000000000E+02 1.420266926289E-08 1.583248376846E-08
     1.740850000000E+05 0.000000000000E+00 0.000000000000E+00 0.000000000000E+00
E21 2019 01 15 00 10 00-5.144686438143E-04-1.961097950698E-12 0.000000000000E+00
     3.300000000000E+01 7.906250000000E+01 3.032626321059E-09-4.808487319998E-01
     3.676861524582E-06 4.431942943484E-05 4.431232810020E-06 5.440623712540E+03
     1.734000000000E+05-5.774199962616E-08-3.073399328584E+00 1.303851604462E-08
     9.896608622045E-01 2.615000000000E+02 6.024092163733E-01-5.685593970667E-09
     4.857345185067E-11 5.210000000000E+02 2.036000000000E+03 0.000000000000E+00
     3.120000000000E+00 0.000000000000E+00-2.328306436539E-09-2.793967723846E-09
     1.740850000000E+05 0.000000000000E+00 0.000000000000E+00 0.000000000000E+00
E25 2019 01 15 00 10 00 1.923642179463E-03-1.131184035330E-11 0.000000000000E+00
     3.300000000000E+01 6.034375000000E+01 3.020125800362E-09-1.664023638475E+00
     2.844259142876E-06 1.765015767887E-04 4.468485713005E-06 5.440624092102E+03
     1.734000000000E+05 5.587935447693E-09-3.073408739536E+00-3.539025783539E-08
     9.896667650789E-01 2.603750000000E+02-1.354405925929E+00-5.662021560211E-09
    -4.643050544549E-12 5.210000000000E+02 2.036000000000E+03 0.000000000000E+00
     3.120000000000E+00 0.000000000000E+00-1.164153218269E-09-1.629814505577E-09
     1.740850000000E+05 0.000000000000E+00 0.000000000000E+00 0.000000000000E+00
E26 2019 01 15 00 10 00 5.018992058467E-03-4.339995030023E-11 0.000000000000E+00
     3.300000000000E+01-3.593750000000E+01 2.811545683592E-09-1.220893789984E-02
    -1.560896635056E-06 3.157233586535E-04 9.179115295410E-06 5.440608917236E+03
     1.734000000000E+05 5.401670932770E-08-9.818787319675E-01 2.048909664154E-08
     9.783435523931E-01 1.525312500000E+02-1.969984319149E+00-5.490228690062E-09
     1.875078104529E-10 5.210000000000E+02 2.036000000000E+03 0.000000000000E+00
     3.120000000000E+00 0.000000000000E+00 1.164153218269E-09 1.396983861923E-09
     1.740850000000E+05 0.000000000000E+00 0.000000000000E+00 0.000000000000E+00
E30 2019 01 15 00 10 00 5.187981645577E-03-3.043965079996E-11 0.000000000000E+00
     3.300000000000E+01 7.100000000000E+01 3.070127883150E-09 1.052246577905E+00
     3.354623913765E-06 3.142462810501E-04 4.259869456291E-06 5.440612304688E+03
     1.734000000000E+05-2.235174179077E-08-3.067389672818E+00 7.450580596924E-09
     9.876493703263E-01 2.613750000000E+02 6.221446190949E-01-5.744524996810E-09
     2.464388365953E-11 5.210000000000E+02 2.036000000000E+03 0.000000000000E+00
     3.120000000000E+00 0.000000000000E+00-3.026798367500E-09-3.725290298462E-09
     1.740850000000E+05 0.000000000000E+00 0.000000000000E+00 0.000000000000E+00
E33 2019 01 15 00 10 00 8.479200187139E-04-1.421085471520E-14 0.000000000000E+00
     3.300000000000E+01-4.262500000000E+01 2.747257291436E-09-1.372566686055E+00
    -1.939013600349E-06 3.705780254677E-04 8.694827556610E-06 5.440597114563E+03
     1.734000000000E+05 3.166496753693E-08-9.908106426689E-01-4.470348358154E-08
     9.852232391882E-01 1.642500000000E+02-1.401025375656E+00-5.443083869148E-09
     1.278624688422E-10 5.210000000000E+02 2.036000000000E+03 0.000000000000E+00
     3.120000000000E+00 4.550000000000E+02-8.149072527885E-09-9.313225746155E-09
     1.740850000000E+05 0.000000000000E+00 0.000000000000E+00 0.000000000000E+00
E01 2019 01 15 00 10 00-5.209168302827E-04-8.185452315956E-12 0.000000000000E+00
     3.300000000000E+01 7.678125000000E+01 3.031554847856E-09-9.007540201348E-02
     3.589317202568E-06 8.026591967791E-05 4.442408680916E-06 5.440613986969E+03
     1.734000000000E+05 7.450580596924E-09-3.070790250763E+00 5.401670932770E-08
     9.900976149341E-01 2.600937500000E+02-5.896408293416E-01-5.653092616856E-09
     6.214544575012E-11 2.580000000000E+02 2.036000000000E+03 0.000000000000E+00
     3.120000000000E+00 0.000000000000E+00-4.656612873077E-09 0.000000000000E+00
     1.741000000000E+05 0.000000000000E+00 0.000000000000E+00 0.000000000000E+00
E04 2019 01 15 00 10 00-2.001830143854E-04-7.872813512222E-12 0.000000000000E+00
     3.300000000000E+01-5.037500000000E+01 3.274422107110E-09-1.507603181175E+00
    -2.298504114151E-06 7.291580550373E-05 8.894130587578E-06 5.440616529465E+03
     1.734000000000E+05-4.284083843231E-08 1.119880367467E+00 2.793967723846E-08
     9.524751362640E-01 1.455000000000E+02 2.136210962104E+00-5.628448733196E-09
    -1.271481533738E-10 2.580000000000E+02 2.036000000000E+03 0.000000000000E+00
     3.120000000000E+00 0.000000000000E+00-7.916241884232E-09 0.000000000000E+00
     1.741000000000E+05 0.000000000000E+00 0.000000000000E+00 0.000000000000E+00
